GOES 1 (SMS-C) [-]      
1 08366U 75100A   23123.57105656 -.00000072  00000+0  00000+0 0  9990
2 08366   7.4940 291.7110 0000500 245.4549 142.8009  1.00226803173634
GOES 2 [-]              
1 10061U 77048A   23123.48565356 -.00000324  00000+0  00000+0 0  9995
2 10061   9.1196 303.7714 0011820  38.4328 189.7157  0.99400698 34933
GOES 3 [-]              
1 10953U 78062A   23123.40730009 -.00000260  00000+0  00000+0 0  9992
2 10953   9.4782 308.5078 0002988 133.5098 240.5581  0.99363176117207
GOES 4 [-]              
1 11964U 80074A   23123.57892660  .00000071  00000+0  00000+0 0  9990
2 11964  10.4619 312.3403 0033837  83.3767 265.3363  0.99228653116110
GOES 5 [-]              
1 12472U 81049A   23123.54352420 -.00000237  00000+0  00000+0 0  9995
2 12472  11.4014 323.9707 0001472 128.0621 243.6121  1.00220823111419
GOES 6 [-]              
1 14050U 83041A   23123.56444828 -.00000149  00000+0  00000+0 0  9991
2 14050  12.0130 329.3539 0004278 138.5506 220.6102  1.00220423204577
GOES 7 [-]              
1 17561U 87022A   23123.45363786 -.00000054  00000+0  00000+0 0  9990
2 17561  13.9656 345.9825 0005863  70.6680 144.8310  0.99909127115562
GOES 8 [-]              
1 23051U 94022A   23123.41300027  .00000039  00000+0  00000+0 0  9996
2 23051  13.4512  21.9396 0007772  40.2480 174.7838  0.98904104112849
GOES 9 [-]              
1 23581U 95025A   23122.91734954 -.00000124  00000+0  00000+0 0  9998
2 23581  12.9487  22.3967 0006880  93.5996  89.1386  0.98801461101480
GOES 10 [-]             
1 24786U 97019A   23122.78315771  .00000082  00000+0  00000+0 0  9990
2 24786  11.7854  28.7001 0025371 208.2095 325.8533  0.99121606 94755
GOES 11 [-]             
1 26352U 00022A   23123.52582973 -.00000088  00000+0  00000+0 0  9999
2 26352   9.3666  56.7259 0001232 319.4998 224.2129  0.99044713 83702
GOES 12 [-]             
1 26871U 01031A   23123.55267774  .00000040  00000+0  00000+0 0  9995
2 26871  10.0972  46.0413 0006200 343.2293 242.7558  0.99137292 79457
EWS-G1 (GOES 13) [+]    
1 29155U 06018A   23123.54702365  .00000052  00000+0  00000+0 0  9995
2 29155   1.4191  91.9339 0000975  98.4578 289.1971  1.00268141 31943
GOES 14 [B]             
1 35491U 09033A   23123.60392546 -.00000053  00000+0  00000+0 0  9990
2 35491   0.2313 109.8861 0006117 306.1226 274.3289  1.00269471 50674
GOES 15 [B]             
1 36411U 10008A   23123.56024095  .00000136  00000+0  00000+0 0  9994
2 36411   0.2497  95.3537 0001320 273.3584 271.7168  1.00140572 48216
GOES 16 [+]             
1 41866U 16071A   23123.54474451 -.00000235  00000+0  00000+0 0  9994
2 41866   0.0216 286.7514 0000502 132.1092 283.2538  1.00271689 23666
GOES 17 [+]             
1 43226U 18022A   23123.36583831 -.00000077  00000+0  00000+0 0  9991
2 43226   0.0172  80.3573 0002191 348.8834 178.7324  1.00270355 18987
GOES 18 [+]             
1 51850U 22021A   23122.63737983  .00000108  00000+0  00000+0 0  9999
2 51850   0.0055 128.8107 0000388 262.4467 281.4906  1.00272085  4333
